NORAD_CAT_ID,OBJECT_NAME,OBJECT_TYPE,EPOCH,MEAN_MOTION,ECCENTRICITY,INCLINATION,RA_OF_ASC_NODE,ARG_OF_PERICENTER,MEAN_ANOMALY,BSTAR,MEAN_MOTION_DOT,MEAN_MOTION_DDOT,TLE_LINE0,TLE_LINE1,TLE_LINE2,SEMIMAJOR_AXIS,PERIOD,APOGEE,PERIGEE,DECAYED
54196.0,STARLINK-5237,PAYLOAD,2023-01-11 14:00:01,15.42423388,0.0001808,53.2174,132.1118,38.8431,65.0217,-0.028419,-0.01140446,0.0,0 STARLINK-5237,1 54196U 22141AR  23011.58334491 -.01140446  00000-0 -28419-1 0  9996,2 54196  53.2174 132.1118 0001808  38.8431  65.0217 15.42423388  1305,6817.096,93.36,440.194,437.729,0.0
54196.0,STARLINK-5237,PAYLOAD,2023-01-11 22:00:00,15.41611578,0.0001798,53.2172,130.5381,39.7097,115.6054,-0.02928,-0.01143066,0.0,0 STARLINK-5237,1 54196U 22141AR  23011.91667824 -.01143066  00000-0 -29280-1 0  9990,2 54196  53.2172 130.5381 0001798  39.7097 115.6054 15.41611578  1303,6819.49,93.409,442.581,440.128,0.0
54196.0,STARLINK-5237,PAYLOAD,2023-01-12 20:00:01,15.393843300000002,0.000132,53.2122,126.2236,78.5223,123.2714,-0.031909,-0.01155293,0.0,0 STARLINK-5237,1 54196U 22141AR  23012.83334491 -.01155293  00000-0 -31909-1 0  9999,2 54196  53.2122 126.2236 0001320  78.5223 123.2714 15.39384330 12313,6826.066,93.544,448.832,447.03,0.0
54196.0,STARLINK-5237,PAYLOAD,2023-01-12 22:00:00,15.39198619,0.0001147,53.2125,125.8309,83.5121,220.3163,-0.033222,-0.01191843,0.0,0 STARLINK-5237,1 54196U 22141AR  23012.91667824 -.01191843  00000-0 -33222-1 0  9998,2 54196  53.2125 125.8309 0001147  83.5121 220.3163 15.39198619  1309,6826.615,93.555,449.263,447.697,0.0
54196.0,STARLINK-5237,PAYLOAD,2023-01-13 14:00:01,15.3753274,0.0001176,53.2126,122.6998,72.8726,325.0719,-0.033218,-0.01133634,0.0,0 STARLINK-5237,1 54196U 22141AR  23013.58334491 -.01133634  00000-0 -33218-1 0  9992,2 54196  53.2126 122.6998 0001176  72.8726 325.0719 15.37532740  1308,6831.545,93.657,454.213,452.607,0.0
54196.0,STARLINK-5237,PAYLOAD,2023-01-13 22:00:00,15.36753317,0.0001176,53.2127,121.1365,67.5611,15.9548,-0.035774,-0.01185197,0.0,0 STARLINK-5237,1 54196U 22141AR  23013.91667824 -.01185197  00000-0 -35774-1 0  9998,2 54196  53.2127 121.1365 0001176  67.5611  15.9548 15.36753317 12485,6833.855,93.704,456.523,454.916,0.0
54196.0,STARLINK-5237,PAYLOAD,2023-01-14 14:00:01,15.35084476,0.0001375,53.213,118.017,73.6096,98.1558,-0.035578,-0.01122624,0.0,0 STARLINK-5237,1 54196U 22141AR  23014.58334491 -.01122624  00000-0 -35578-1 0  9991,2 54196  53.2130 118.0170 0001375  73.6096  98.1558 15.35084476 12581,6838.807,93.806,461.612,459.731,0.0
54196.0,STARLINK-5237,PAYLOAD,2023-01-15 06:00:00,15.33474648,0.0001247,53.2133,114.9029,97.8722,158.2053,-0.037821,-0.01132543,0.0,0 STARLINK-5237,1 54196U 22141AR  23015.25001157 -.01132543  00000-0 -37821-1 0  9990,2 54196  53.2133 114.9029 0001247  97.8722 158.2053 15.33474648 12696,6843.592,93.904,466.31,464.604,0.0
54196.0,STARLINK-5237,PAYLOAD,2023-01-15 14:00:01,15.3263714,0.0001193999999999,53.2134,113.3516,82.6367,214.1468,-0.037956,-0.01108932,0.0,0 STARLINK-5237,1 54196U 22141AR  23015.58334491 -.01108932  00000-0 -37956-1 0  9990,2 54196  53.2134 113.3516 0001194  82.6367 214.1468 15.32637140  1304,6846.085,93.956,468.767,467.132,0.0
54196.0,STARLINK-5237,PAYLOAD,2023-01-15 22:00:01,15.3186664,0.0001044,53.2134,111.7995,78.759,257.7916,-0.041701,-0.01181824,0.0,0 STARLINK-5237,1 54196U 22141AR  23015.91668981 -.01181824  00000-0 -41701-1 0  9995,2 54196  53.2134 111.7995 0001044  78.7590 257.7916 15.31866640 12799,6848.38,94.003,470.96,469.53,0.0
54196.0,STARLINK-5237,PAYLOAD,2023-01-16 14:00:01,15.30194445,0.0001248,53.2136,108.7036,68.1299,344.8706,-0.040818,-0.01104871,0.0,0 STARLINK-5237,1 54196U 22141AR  23016.58334491 -.01104871  00000-0 -40818-1 0  9990,2 54196  53.2136 108.7036 0001248  68.1299 344.8706 15.30194445 12890,6853.369000000001,94.106,476.089,474.378,0.0
54196.0,STARLINK-5237,PAYLOAD,2023-01-16 20:00:01,15.29639839,0.0001032,53.2133,107.5439,66.7997,283.8602,-0.045066,-0.01206859,0.0,0 STARLINK-5237,1 54196U 22141AR  23016.83334491 -.01206859  00000-0 -45066-1 0  9997,2 54196  53.2133 107.5439 0001032  66.7997 283.8602 15.29639839 12932,6855.025,94.14,477.598,476.1830000000001,0.0
54196.0,STARLINK-5237,PAYLOAD,2023-01-17 14:00:01,15.27749308,0.0001415,53.2137,104.0732,72.5213,87.8971,-0.043697,-0.01097372,0.0,0 STARLINK-5237,1 54196U 22141AR  23017.58334491 -.01097372  00000-0 -43697-1 0  9996,2 54196  53.2137 104.0732 0001415  72.5213  87.8971 15.27749308 13040,6860.679,94.256,483.515,481.573,0.0
54196.0,STARLINK-5237,PAYLOAD,2023-01-17 22:00:00,15.26974911,0.0001259,53.2135,102.5322,82.9679,111.2895,-0.047739,-0.0118002999999999,0.0,0 STARLINK-5237,1 54196U 22141AR  23017.91667824 -.01180030  00000-0 -47739-1 0  9997,2 54196  53.2135 102.5322 0001259  82.9679 111.2895 15.26974911  1305,6862.999,94.304,485.728,483.999,0.0
54196.0,STARLINK-5237,PAYLOAD,2023-01-18 06:00:00,15.26166894,0.0001361999999999,53.2137,100.9941,96.3448,130.7792,-0.048651,-0.01173872,0.0,0 STARLINK-5237,1 54196U 22141AR  23018.25001157 -.01173872  00000-0 -48651-1 0  9996,2 54196  53.2137 100.9941 0001362  96.3448 130.7792 15.26166894 13155,6865.420999999999,94.354,488.221,486.351,0.0
54196.0,STARLINK-5237,PAYLOAD,2023-01-18 14:00:01,15.25302649,0.0001302,53.2136,99.46,85.145,173.8906,-0.0465449999999999,-0.01085938,0.0,0 STARLINK-5237,1 54196U 22141AR  23018.58334491 -.01085938  00000-0 -46545-1 0  9997,2 54196  53.2136  99.4600 0001302  85.1450 173.8906 15.25302649  1309,6868.014,94.407,490.773,488.985,0.0
54196.0,STARLINK-5237,PAYLOAD,2023-01-18 22:00:00,15.24525906,0.0001174,53.2133,97.9249,88.9624,200.9811,-0.050889,-0.01168816,0.0,0 STARLINK-5237,1 54196U 22141AR  23018.91667824 -.01168816  00000-0 -50889-1 0  9996,2 54196  53.2133  97.9249 0001174  88.9624 200.9811 15.24525906  1308,6870.346,94.456,493.018,491.405,0.0
54196.0,STARLINK-5237,PAYLOAD,2023-01-19 14:00:01,15.22864096,0.0001139,53.2134,94.8641,80.9666,267.8822,-0.050189,-0.01088049,0.0,0 STARLINK-5237,1 54196U 22141AR  23019.58334491 -.01088049  00000-0 -50189-1 0  9993,2 54196  53.2134  94.8641 0001139  80.9666 267.8822 15.22864096 13356,6875.344,94.559,497.992,496.426,0.0
54196.0,STARLINK-5237,PAYLOAD,2023-01-20 04:00:00,15.21469502,0.0001234,53.2131,92.1892,95.4875,211.6797,-0.054437,-0.01143488,0.0,0 STARLINK-5237,1 54196U 22141AR  23020.16667824 -.01143488  00000-0 -54437-1 0  9997,2 54196  53.2131  92.1892 0001234  95.4875 211.6797 15.21469502 13441,6879.544,94.645,502.258,500.56,0.0
54196.0,STARLINK-5237,PAYLOAD,2023-01-20 16:00:00,15.20238132,0.0001351999999999,53.2125,89.9047,74.3276,91.8817,-0.055522,-0.01126179,0.0,0 STARLINK-5237,1 54196U 22141AR  23020.66667824 -.01126179  00000-0 -55522-1 0  9996,2 54196  53.2125  89.9047 0001352  74.3276  91.8817 15.20238132  1307,6883.259,94.722,506.054,504.193,0.0
54196.0,STARLINK-5237,PAYLOAD,2023-01-20 22:00:00,15.19628016,0.0001215,53.2126,88.7616,78.6409,16.2702,-0.057348,-0.01141344,0.0,0 STARLINK-5237,1 54196U 22141AR  23020.91667824 -.01141344  00000-0 -57348-1 0  9993,2 54196  53.2126  88.7616 0001215  78.6409  16.2702 15.19628016 13556,6885.101,94.76,507.80300000000005,506.129,0.0
54196.0,STARLINK-5237,PAYLOAD,2023-01-21 14:00:01,15.17982236,0.0001331999999999,53.2123,85.7238,72.5364,69.5397,-0.057826,-0.01100322,0.0,0 STARLINK-5237,1 54196U 22141AR  23021.58334491 -.01100322  00000-0 -57826-1 0  9990,2 54196  53.2123  85.7238 0001332  72.5364  69.5397 15.17982236 13650,6890.076999999999,94.863,512.859,511.024,0.0
54196.0,STARLINK-5237,PAYLOAD,2023-01-22 06:00:00,15.16405574,0.0001443999999999,53.2119,82.6905,85.7261,99.5897,-0.065789,-0.01188603,0.0,0 STARLINK-5237,1 54196U 22141AR  23022.25001157 -.01188603  00000-0 -65789-1 0  9990,2 54196  53.2119  82.6905 0001444  85.7261  99.5897 15.16405574 13751,6894.852,94.961,517.712,515.721,0.0
54196.0,STARLINK-5237,PAYLOAD,2023-01-22 22:00:00,15.14735538,0.0001309,53.2116,79.6657,83.0598,141.6141,-0.064882,-0.01122918,0.0,0 STARLINK-5237,1 54196U 22141AR  23022.91667824 -.01122918  00000-0 -64882-1 0  9992,2 54196  53.2116  79.6657 0001309  83.0598 141.6141 15.14735538 13869,6899.919,95.066,522.687,520.88,0.0
54196.0,STARLINK-5237,PAYLOAD,2023-01-23 14:00:01,15.13104141,0.0001317,53.2114,76.6505,81.2339,178.8661,-0.066887,-0.01106682,0.0,0 STARLINK-5237,1 54196U 22141AR  23023.58334491 -.01106682  00000-0 -66887-1 0  9994,2 54196  53.2114  76.6505 0001317  81.2339 178.8661 15.13104141 13967,6904.877,95.169,527.6519999999999,525.8330000000001,0.0
54196.0,STARLINK-5237,PAYLOAD,2023-01-24 06:00:00,15.11522421,0.0001357,53.2115,73.6395,100.2839,191.3241,-0.0756059999999999,-0.01189401,0.0,0 STARLINK-5237,1 54196U 22141AR  23024.25001157 -.01189401  00000-0 -75606-1 0  9998,2 54196  53.2115  73.6395 0001357 100.2839 191.3241 15.11522421 14062,6909.693,95.268,532.496,530.621,0.0
54196.0,STARLINK-5237,PAYLOAD,2023-01-24 22:00:00,15.09831777,0.0001237,53.2118,70.6372,97.4696,221.7671,-0.071235,-0.01077927,0.0,0 STARLINK-5237,1 54196U 22141AR  23024.91667824 -.01077927  00000-0 -71235-1 0  9993,2 54196  53.2118  70.6372 0001237  97.4696 221.7671 15.09831777 14162,6914.851,95.375,537.571,535.86,0.0
54196.0,STARLINK-5237,PAYLOAD,2023-01-25 06:00:00,15.08889438,0.0001696,53.2125,69.1395,91.8092,239.7618,-0.0094703,-0.00148127,0.0,0 STARLINK-5237,1 54196U 22141AR  23025.25001157 -.00148127  00000-0 -94703-2 0  9998,2 54196  53.2125  69.1395 0001696  91.8092 239.7618 15.08889438 14217,6917.729,95.434,540.768,538.4209999999999,0.0
54196.0,STARLINK-5237,PAYLOAD,2023-01-25 14:00:01,15.08783085,0.0001623,53.2133,67.64399999999999,84.6939,258.4697,0.0038992,0.00062219,0.0,0 STARLINK-5237,1 54196U 22141AR  23025.58334491  .00062219  00000-0  38992-2 0  9997,2 54196  53.2133  67.6440 0001623  84.6939 258.4697 15.08783085 14261,6918.054,95.441,541.0419999999999,538.797,0.0
